{"type": "FeatureCollection", "features": [ {"type": "Feature", "properties": {"norad_id": 44476, "name": "INTELSAT 39 (IS-39)", "group": "intelsat", "lat": 0.036564585630012976, "lon": 67.61403853814106, "alt_km": 35785.54135940853, "timestamp": "2025-12-11T18:59:45.734843+00:00", "meta": {"OBJECT_NAME": "INTELSAT 39 (IS-39)", "OBJECT_ID": "2019-049B", "EPOCH": "2025-12-11T05:14:47.270688", "MEAN_MOTION": 1.00270766, "ECCENTRICITY": 9.52e-05, "INCLINATION": 0.0192, "RA_OF_ASC_NODE": 327.7317, "ARG_OF_PERICENTER": 178.7135, "MEAN_ANOMALY": 74.3777, "EPHEMERIS_TYPE": 0, "CLASSIFICATION_TYPE": "U", "NORAD_CAT_ID": 44476, "ELEMENT_SET_NO": 999, "REV_AT_EPOCH": 2324, "BSTAR": 0, "MEAN_MOTION_DOT": 4e-07, "MEAN_MOTION_DDOT": 0}, "tle": {"line1": "1 44476U 19049B   25345.21860267  .00000040  00000+0  00000+0 0  9991", "line2": "2 44476   0.0192 327.7317 0000952 178.7135  74.3777  1.00270766 23242"}}, "geometry": {"type": "Point", "coordinates": [67.61403853814106, 0.036564585630012976]}}, {"type": "Feature", "properties": {"norad_id": 46114, "name": "GALAXY 30 (G-30)", "group": "intelsat", "lat": -0.0341493627704202, "lon": -119.32576576973749, "alt_km": 35776.717695588806, "timestamp": "2025-12-11T18:59:45.734856+00:00", "meta": {"OBJECT_NAME": "GALAXY 30 (G-30)", "OBJECT_ID": "2020-056C", "EPOCH": "2025-12-11T04:35:38.717376", "MEAN_MOTION": 1.00272338, "ECCENTRICITY": 0.00023056, "INCLINATION": 0.0165, "RA_OF_ASC_NODE": 328.5653, "ARG_OF_PERICENTER": 292.0277, "MEAN_ANOMALY": 123.4727, "EPHEMERIS_TYPE": 0, "CLASSIFICATION_TYPE": "U", "NORAD_CAT_ID": 46114, "ELEMENT_SET_NO": 999, "REV_AT_EPOCH": 1940, "BSTAR": 0, "MEAN_MOTION_DOT": 4.3e-07, "MEAN_MOTION_DDOT": 0}, "tle": {"line1": "1 46114U 20056C   25345.19142034  .00000043  00000+0  00000+0 0  9997", "line2": "2 46114   0.0165 328.5653 0002305 292.0277 123.4727  1.00272338 19407"}}, "geometry": {"type": "Point", "coordinates": [-119.32576576973749, -0.0341493627704202]}}, {"type": "Feature", "properties": {"norad_id": 54026, "name": "GALAXY 33 (G-33)", "group": "intelsat", "lat": -0.02857795252742314, "lon": -127.32409595259396, "alt_km": 35778.21198628331, "timestamp": "2025-12-11T18:59:45.734868+00:00", "meta": {"OBJECT_NAME": "GALAXY 33 (G-33)", "OBJECT_ID": "2022-128A", "EPOCH": "2025-12-11T04:43:38.646912", "MEAN_MOTION": 1.00271089, "ECCENTRICITY": 0.0002044, "INCLINATION": 0.0115, "RA_OF_ASC_NODE": 323.4657, "ARG_OF_PERICENTER": 291.2943, "MEAN_ANOMALY": 123.315, "EPHEMERIS_TYPE": 0, "CLASSIFICATION_TYPE": "U", "NORAD_CAT_ID": 54026, "ELEMENT_SET_NO": 999, "REV_AT_EPOCH": 1185, "BSTAR": 0, "MEAN_MOTION_DOT": 8.5e-07, "MEAN_MOTION_DDOT": 0}, "tle": {"line1": "1 54026U 22128A   25345.19697508  .00000085  00000+0  00000+0 0  9997", "line2": "2 54026   0.0115 323.4657 0002044 291.2943 123.3150  1.00271089 11854"}}, "geometry": {"type": "Point", "coordinates": [-127.32409595259396, -0.02857795252742314]}}, {"type": "Feature", "properties": {"norad_id": 54027, "name": "GALAXY 34 (G-34)", "group": "intelsat", "lat": -0.040232468668482686, "lon": -123.25863732027162, "alt_km": 35780.65189227019, "timestamp": "2025-12-11T18:59:45.734886+00:00", "meta": {"OBJECT_NAME": "GALAXY 34 (G-34)", "OBJECT_ID": "2022-128B", "EPOCH": "2025-12-11T04:35:38.717376", "MEAN_MOTION": 1.00269657, "ECCENTRICITY": 0.00014852, "INCLINATION": 0.0228, "RA_OF_ASC_NODE": 336.4387, "ARG_OF_PERICENTER": 278.067, "MEAN_ANOMALY": 125.6291, "EPHEMERIS_TYPE": 0, "CLASSIFICATION_TYPE": "U", "NORAD_CAT_ID": 54027, "ELEMENT_SET_NO": 999, "REV_AT_EPOCH": 1202, "BSTAR": 0, "MEAN_MOTION_DOT": 0, "MEAN_MOTION_DDOT": 0}, "tle": {"line1": "1 54027U 22128B   25345.19142034  .00000000  00000+0  00000+0 0  9994", "line2": "2 54027   0.0228 336.4387 0001485 278.0670 125.6291  1.00269657 12021"}}, "geometry": {"type": "Point", "coordinates": [-123.25863732027162, -0.040232468668482686]}}, {"type": "Feature", "properties": {"norad_id": 54243, "name": "GALAXY 31 (G-31)", "group": "intelsat", "lat": -0.013370690223313476, "lon": -115.31543443320903, "alt_km": 35778.900350811586, "timestamp": "2025-12-11T18:59:45.734899+00:00", "meta": {"OBJECT_NAME": "GALAXY 31 (G-31)", "OBJECT_ID": "2022-153A", "EPOCH": "2025-12-10T23:14:20.350176", "MEAN_MOTION": 1.00272485, "ECCENTRICITY": 0.00018393, "INCLINATION": 0.0145, "RA_OF_ASC_NODE": 258.162, "ARG_OF_PERICENTER": 13.4578, "MEAN_ANOMALY": 35.9092, "EPHEMERIS_TYPE": 0, "CLASSIFICATION_TYPE": "U", "NORAD_CAT_ID": 54243, "ELEMENT_SET_NO": 999, "REV_AT_EPOCH": 524, "BSTAR": 0, "MEAN_MOTION_DOT": 1.8e-07, "MEAN_MOTION_DDOT": 0}, "tle": {"line1": "1 54243U 22153A   25344.96829109  .00000018  00000+0  00000+0 0  9990", "line2": "2 54243   0.0145 258.1620 0001839  13.4578  35.9092  1.00272485  5241"}}, "geometry": {"type": "Point", "coordinates": [-115.31543443320903, -0.013370690223313476]}}, {"type": "Feature", "properties": {"norad_id": 54244, "name": "GALAXY 32 (G-32)", "group": "intelsat", "lat": -0.02479389388618388, "lon": -85.34646152456384, "alt_km": 35778.12286968218, "timestamp": "2025-12-11T18:59:45.734912+00:00", "meta": {"OBJECT_NAME": "GALAXY 32 (G-32)", "OBJECT_ID": "2022-153B", "EPOCH": "2025-12-10T11:23:53.431008", "MEAN_MOTION": 1.00269631, "ECCENTRICITY": 0.00024863, "INCLINATION": 0.0094, "RA_OF_ASC_NODE": 343.9176, "ARG_OF_PERICENTER": 325.4249, "MEAN_ANOMALY": 210.0765, "EPHEMERIS_TYPE": 0, "CLASSIFICATION_TYPE": "U", "NORAD_CAT_ID": 54244, "ELEMENT_SET_NO": 999, "REV_AT_EPOCH": 1125, "BSTAR": 0, "MEAN_MOTION_DOT": -1.7e-06, "MEAN_MOTION_DDOT": 0}, "tle": {"line1": "1 54244U 22153B   25344.47492397 -.00000170  00000+0  00000+0 0  9992", "line2": "2 54244   0.0094 343.9176 0002486 325.4249 210.0765  1.00269631 11254"}}, "geometry": {"type": "Point", "coordinates": [-85.34646152456384, -0.02479389388618388]}}, {"type": "Feature", "properties": {"norad_id": 54741, "name": "GALAXY 35 (G-35)", "group": "intelsat", "lat": -0.008853414763690007, "lon": -87.40455374721624, "alt_km": 35775.584747914196, "timestamp": "2025-12-11T18:59:45.734924+00:00", "meta": {"OBJECT_NAME": "GALAXY 35 (G-35)", "OBJECT_ID": "2022-170A", "EPOCH": "2025-12-11T04:30:29.013120", "MEAN_MOTION": 1.00271246, "ECCENTRICITY": 0.00025409, "INCLINATION": 0.0164, "RA_OF_ASC_NODE": 263.7762, "ARG_OF_PERICENTER": 2.1767, "MEAN_ANOMALY": 148.7302, "EPHEMERIS_TYPE": 0, "CLASSIFICATION_TYPE": "U", "NORAD_CAT_ID": 54741, "ELEMENT_SET_NO": 999, "REV_AT_EPOCH": 1100, "BSTAR": 0, "MEAN_MOTION_DOT": -1.56e-06, "MEAN_MOTION_DDOT": 0}, "tle": {"line1": "1 54741U 22170A   25345.18783580 -.00000156  00000+0  00000+0 0  9993", "line2": "2 54741   0.0164 263.7762 0002540   2.1767 148.7302  1.00271246 11001"}}, "geometry": {"type": "Point", "coordinates": [-87.40455374721624, -0.008853414763690007]}}, {"type": "Feature", "properties": {"norad_id": 54742, "name": "GALAXY 36 (G-36)", "group": "intelsat", "lat": -0.017332875750455418, "lon": -83.316402434804, "alt_km": 35784.32266953576, "timestamp": "2025-12-11T18:59:45.734936+00:00", "meta": {"OBJECT_NAME": "GALAXY 36 (G-36)", "OBJECT_ID": "2022-170B", "EPOCH": "2025-12-11T04:31:36.405984", "MEAN_MOTION": 1.00272439, "ECCENTRICITY": 3.881e-05, "INCLINATION": 0.0154, "RA_OF_ASC_NODE": 63.9855, "ARG_OF_PERICENTER": 222.9894, "MEAN_ANOMALY": 132.0795, "EPHEMERIS_TYPE": 0, "CLASSIFICATION_TYPE": "U", "NORAD_CAT_ID": 54742, "ELEMENT_SET_NO": 999, "REV_AT_EPOCH": 1088, "BSTAR": 0, "MEAN_MOTION_DOT": -1.79e-06, "MEAN_MOTION_DDOT": 0}, "tle": {"line1": "1 54742U 22170B   25345.18861581 -.00000179  00000+0  00000+0 0  9997", "line2": "2 54742   0.0154  63.9855 0000388 222.9894 132.0795  1.00272439 10887"}}, "geometry": {"type": "Point", "coordinates": [-83.316402434804, -0.017332875750455418]}}, {"type": "Feature", "properties": {"norad_id": 57493, "name": "GALAXY 37 (G-37)", "group": "intelsat", "lat": -0.01933027986988799, "lon": -121.32058878995564, "alt_km": 35777.33024652563, "timestamp": "2025-12-11T18:59:45.734948+00:00", "meta": {"OBJECT_NAME": "GALAXY 37 (G-37)", "OBJECT_ID": "2023-112A", "EPOCH": "2025-12-10T23:12:35.517600", "MEAN_MOTION": 1.00272279, "ECCENTRICITY": 0.00022677, "INCLINATION": 0.0079, "RA_OF_ASC_NODE": 18.4049, "ARG_OF_PERICENTER": 247.2478, "MEAN_ANOMALY": 35.4359, "EPHEMERIS_TYPE": 0, "CLASSIFICATION_TYPE": "U", "NORAD_CAT_ID": 57493, "ELEMENT_SET_NO": 999, "REV_AT_EPOCH": 865, "BSTAR": 0, "MEAN_MOTION_DOT": 5.3e-07, "MEAN_MOTION_DDOT": 0}, "tle": {"line1": "1 57493U 23112A   25344.96707775  .00000053  00000+0  00000+0 0  9999", "line2": "2 57493   0.0079  18.4049 0002267 247.2478  35.4359  1.00272279  8651"}}, "geometry": {"type": "Point", "coordinates": [-121.32058878995564, -0.01933027986988799]}}]}